[{"OBJECT_NAME":"OBJECT A","OBJECT_ID":"2024-203A","EPOCH":"2026-03-09T23:31:20.812800","MEAN_MOTION":15.27300571,"ECCENTRICITY":0.00108989,"INCLINATION":97.4288,"RA_OF_ASC_NODE":139.5608,"ARG_OF_PERICENTER":322.6893,"MEAN_ANOMALY":37.3588,"EPHEMERIS_TYPE":0,"CLASSIFICATION_TYPE":"U","NORAD_CAT_ID":61869,"ELEMENT_SET_NO":999,"REV_AT_EPOCH":7380,"BSTAR":0.00061472876,"MEAN_MOTION_DOT":0.00016411,"MEAN_MOTION_DDOT":0},{"OBJECT_NAME":"STARLINK-34733","OBJECT_ID":"2025-263C","EPOCH":"2026-03-09T04:07:59.232576","MEAN_MOTION":15.27575434,"ECCENTRICITY":0.0001439,"INCLINATION":43.0038,"RA_OF_ASC_NODE":353.2895,"ARG_OF_PERICENTER":252.0512,"MEAN_ANOMALY":108.0183,"EPHEMERIS_TYPE":0,"CLASSIFICATION_TYPE":"U","NORAD_CAT_ID":66487,"ELEMENT_SET_NO":999,"REV_AT_EPOCH":1882,"BSTAR":0.001405514,"MEAN_MOTION_DOT":0.00038612,"MEAN_MOTION_DDOT":0}]
